NORAD_CAT_ID,OBJECT_NAME,OBJECT_TYPE,EPOCH,MEAN_MOTION,ECCENTRICITY,INCLINATION,RA_OF_ASC_NODE,ARG_OF_PERICENTER,MEAN_ANOMALY,BSTAR,MEAN_MOTION_DOT,MEAN_MOTION_DDOT,TLE_LINE0,TLE_LINE1,TLE_LINE2,SEMIMAJOR_AXIS,PERIOD,APOGEE,PERIGEE,DECAYED
53598.0,STARLINK-4676,PAYLOAD,2024-06-05 12:37:17,15.08839591,0.000126,53.2145,246.6443,104.7654,255.3478,-3.5634e-05,-8.55e-06,0.0,0 STARLINK-4676,1 53598U 22104L   24157.52590138 -.00000855  00000-0 -35634-4 0  9996,2 53598  53.2145 246.6443 0001260 104.7654 255.3478 15.08839591 97983,6917.882,95.438,540.618,538.875,0.0
53598.0,STARLINK-4676,PAYLOAD,2024-06-06 12:28:05,15.08843885,0.0001236,53.215,242.184,89.6594,270.4539,9.5884e-05,1.239e-05,0.0,0 STARLINK-4676,1 53598U 22104L   24158.51950310  .00001239  00000-0  95884-4 0  9996,2 53598  53.2150 242.1840 0001236  89.6594 270.4539 15.08843885 98829,6917.869,95.437,540.589,538.878,0.0
53598.0,STARLINK-4676,PAYLOAD,2024-06-07 09:08:06,15.08838392,0.0001137,53.2151,238.3198,92.2352,267.8771,0.00024989,3.691e-05,0.0,0 STARLINK-4676,1 53598U 22104L   24159.38062810  .00003691  00000-0  24989-3 0  9992,2 53598  53.2151 238.3198 0001137  92.2352 267.8771 15.08838392 98268,6917.885,95.438,540.537,538.964,0.0
53598.0,STARLINK-4676,PAYLOAD,2024-06-07 21:51:10,15.08849257,0.0001245,53.2153,235.9416,91.1555,268.9579,0.00029815,4.462e-05,0.0,0 STARLINK-4676,1 53598U 22104L   24159.91054254  .00004462  00000-0  29815-3 0  9994,2 53598  53.2153 235.9416 0001245  91.1555 268.9579 15.08849257 99035,6917.852,95.437,540.578,538.856,0.0
53598.0,STARLINK-4676,PAYLOAD,2024-06-08 12:09:38,15.0885575,0.0001168,53.2151,233.2675,97.3666,262.7459,0.00022527,3.301e-05,0.0,0 STARLINK-4676,1 53598U 22104L   24160.50669531  .00003301  00000-0  22527-3 0  9995,2 53598  53.2151 233.2675 0001168  97.3666 262.7459 15.08855750 99120,6917.832,95.437,540.505,538.889,0.0
53598.0,STARLINK-4676,PAYLOAD,2024-06-08 21:41:57,15.08849742,0.0001312,53.2148,231.4799,69.3675,290.7458,8.4472e-05,1.057e-05,0.0,0 STARLINK-4676,1 53598U 22104L   24160.90413574  .00001057  00000-0  84472-4 0  9997,2 53598  53.2148 231.4799 0001312  69.3675 290.7458 15.08849742 99183,6917.851,95.437,540.623,538.808,0.0
53598.0,STARLINK-4676,PAYLOAD,2024-06-09 04:03:30,15.08835143,0.0001931,53.2148,230.2899,74.4203,285.7002,-0.00023148,-3.97e-05,0.0,0 STARLINK-4676,1 53598U 22104L   24161.16910305 -.00003970  00000-0 -23148-3 0  9990,2 53598  53.2148 230.2899 0001931  74.4203 285.7002 15.08835143 98539,6917.895,95.438,541.096,538.424,0.0
53598.0,STARLINK-4676,PAYLOAD,2024-06-09 13:35:49,15.08825839,0.0001438,53.2155,228.5063,75.0933,285.0218,-0.00026421,-4.489e-05,0.0,0 STARLINK-4676,1 53598U 22104L   24161.56654917 -.00004489  00000-0 -26421-3 0  9991,2 53598  53.2155 228.5063 0001438  75.0933 285.0218 15.08825839 99285,6917.924,95.438,540.783,538.794,0.0
53598.0,STARLINK-4676,PAYLOAD,2024-06-10 11:51:13,15.08850795,0.0001184,53.2147,224.3441,71.2201,288.8919,0.0003571,5.402e-05,0.0,0 STARLINK-4676,1 53598U 22104L   24162.49390462  .00005402  00000-0  35710-3 0  9991,2 53598  53.2147 224.3441 0001184  71.2201 288.8919 15.08850795 98731,6917.847,95.437,540.531,538.893,0.0
53598.0,STARLINK-4676,PAYLOAD,2024-06-10 21:23:32,15.08844665,0.0001293,53.2153,222.5607,71.6094,288.5038,0.0002919,4.361e-05,0.0,0 STARLINK-4676,1 53598U 22104L   24162.89134752  .00004361  00000-0  29190-3 0  9991,2 53598  53.2153 222.5607 0001293  71.6094 288.5038 15.08844665 99488,6917.866,95.437,540.626,538.837,0.0
53598.0,STARLINK-4676,PAYLOAD,2024-06-11 03:45:05,15.08839818,0.0001355,53.2145,221.3719,68.6605,291.4532,0.00036142,5.469e-05,0.0,0 STARLINK-4676,1 53598U 22104L   24163.15631091  .00005469  00000-0  36142-3 0  9994,2 53598  53.2145 221.3719 0001355  68.6605 291.4532 15.08839818 98837,6917.881,95.438,540.683,538.809,0.0
53598.0,STARLINK-4676,PAYLOAD,2024-06-11 10:06:37,15.08838576,0.0001295,53.2148,220.1808,72.652,287.4614,0.00031826,4.781e-05,0.0,0 STARLINK-4676,1 53598U 22104L   24163.42127112  .00004781  00000-0  31826-3 0  9998,2 53598  53.2148 220.1808 0001295  72.6520 287.4614 15.08838576 99567,6917.885,95.438,540.646,538.854,0.0
53598.0,STARLINK-4676,PAYLOAD,2024-06-12 06:46:38,15.08844078,0.0001225,53.2144,216.3158,67.7943,292.3179,6.39e-06,-1.86e-06,0.0,0 STARLINK-4676,1 53598U 22104L   24164.28238879 -.00000186  00000-0  63900-5 0  9992,2 53598  53.2144 216.3158 0001225  67.7943 292.3179 15.08844078 99694,6917.868,95.437,540.58,538.885,0.0
53598.0,STARLINK-4676,PAYLOAD,2024-06-12 09:57:24,15.08845779,0.0001221,53.2147,215.7201,73.6797,286.4329,2.0555e-05,3.9e-07,0.0,0 STARLINK-4676,1 53598U 22104L   24164.41486725  .00000039  00000-0  20555-4 0  9996,2 53598  53.2147 215.7201 0001221  73.6797 286.4329 15.08845779 99025,6917.863,95.437,540.572,538.883,0.0
53598.0,STARLINK-4676,PAYLOAD,2024-06-13 03:26:39,15.08835673,0.0001163,53.2147,212.4484,78.6746,281.4377,9.1642e-05,1.171e-05,0.0,0 STARLINK-4676,1 53598U 22104L   24165.14351254  .00001171  00000-0  91642-4 0  9998,2 53598  53.2147 212.4484 0001163  78.6746 281.4377 15.08835673 99138,6917.894,95.438,540.563,538.954,0.0
53598.0,STARLINK-4676,PAYLOAD,2024-06-13 09:48:11,15.08840342,0.0001166,53.2157,211.2584,82.3463,277.7661,6.4543e-05,7.4e-06,0.0,0 STARLINK-4676,1 53598U 22104L   24165.40846948  .00000740  00000-0  64543-4 0  9997,2 53598  53.2157 211.2584 0001166  82.3463 277.7661 15.08840342 99861,6917.879,95.438,540.551,538.938,0.0
53598.0,STARLINK-4676,PAYLOAD,2024-06-14 09:38:59,15.08837121,0.0001215,53.2158,206.799,84.7026,275.4104,6.2642e-05,7.09e-06,0.0,0 STARLINK-4676,1 53598U 22104L   24166.40207267  .00000709  00000-0  62642-4 0  9996,2 53598  53.2158 206.7990 0001215  84.7026 275.4104 15.08837121100016,6917.889,95.438,540.595,538.914,0.0
53598.0,STARLINK-4676,PAYLOAD,2024-06-14 19:11:17,15.08838519,0.0001208,53.2157,205.0147,83.4629,276.65,7.3807e-05,8.87e-06,0.0,0 STARLINK-4676,1 53598U 22104L   24166.79951207  .00000887  00000-0  73807-4 0  9990,2 53598  53.2157 205.0147 0001208  83.4629 276.6500 15.08838519100079,6917.885,95.438,540.586,538.914,0.0
53598.0,STARLINK-4676,PAYLOAD,2024-06-15 12:40:31,15.08844276,0.0001205,53.2156,201.7438,82.6308,277.4821,0.0001037,1.363e-05,0.0,0 STARLINK-4676,1 53598U 22104L   24167.52814795  .00001363  00000-0  10370-3 0  9997,2 53598  53.2156 201.7438 0001205  82.6308 277.4821 15.08844276100180,6917.867,95.437,540.566,538.899,0.0
53598.0,STARLINK-4676,PAYLOAD,2024-06-15 19:02:04,15.08839339,0.000116,53.215,200.5536,79.5156,280.5967,6.8808e-05,8.07e-06,0.0,0 STARLINK-4676,1 53598U 22104L   24167.79311187  .00000807  00000-0  68808-4 0  9995,2 53598  53.2150 200.5536 0001160  79.5156 280.5967 15.08839339100221,6917.882,95.438,540.55,538.945,0.0
53598.0,STARLINK-4676,PAYLOAD,2024-06-16 10:55:56,15.08839559,0.0001243,53.2154,197.5807,83.784,276.3293,6.0683e-05,6.78e-06,0.0,0 STARLINK-4676,1 53598U 22104L   24168.45551310  .00000678  00000-0  60683-4 0  9992,2 53598  53.2154 197.5807 0001243  83.7840 276.3293 15.08839559100320,6917.882,95.438,540.607,538.887,0.0
53598.0,STARLINK-4676,PAYLOAD,2024-06-17 18:43:39,15.08838115,0.0001301,53.2154,191.6336,85.2285,274.8856,2.2205e-05,6.6e-07,0.0,0 STARLINK-4676,1 53598U 22104L   24169.78031597  .00000066  00000-0  22205-4 0  9998,2 53598  53.2154 191.6336 0001301  85.2285 274.8856 15.08838115100524,6917.886,95.438,540.651,538.851,0.0
53598.0,STARLINK-4676,PAYLOAD,2024-06-18 09:02:07,15.08837902,0.0001289,53.215,188.9568,86.0786,274.0353,3.6323e-05,2.9e-06,0.0,0 STARLINK-4676,1 53598U 22104L   24170.37647709  .00000290  00000-0  36323-4 0  9998,2 53598  53.2150 188.9568 0001289  86.0786 274.0353 15.08837902100613,6917.887,95.438,540.644,538.86,0.0
53598.0,STARLINK-4676,PAYLOAD,2024-06-18 18:34:26,15.08839885,0.0001287,53.2152,187.1723,86.2572,273.8567,6.5328e-05,7.52e-06,0.0,0 STARLINK-4676,1 53598U 22104L   24170.77391493  .00000752  00000-0  65328-4 0  9998,2 53598  53.2152 187.1723 0001287  86.2572 273.8567 15.08839885 99985,6917.881,95.438,540.636,538.855,0.0
53598.0,STARLINK-4676,PAYLOAD,2024-06-19 10:28:17,15.08843259,0.0001271,53.2151,184.198,87.0066,273.1071,8.2656e-05,1.028e-05,0.0,0 STARLINK-4676,1 53598U 22104L   24171.43631160  .00001028  00000-0  82656-4 0  9990,2 53598  53.2151 184.1980 0001271  87.0066 273.1071 15.08843259100779,6917.87,95.437,540.615,538.856,0.0
53598.0,STARLINK-4676,PAYLOAD,2024-06-20 03:57:32,15.08839353,0.0001267,53.2149,180.9266,87.4733,272.6404,5.5122e-05,5.89e-06,0.0,0 STARLINK-4676,1 53598U 22104L   24172.16495406  .00000589  00000-0  55122-4 0  9991,2 53598  53.2149 180.9266 0001267  87.4733 272.6404 15.08839353100197,6917.882,95.438,540.624,538.871,0.0
53598.0,STARLINK-4676,PAYLOAD,2024-06-20 10:19:04,15.08840806,0.0001265,53.2154,179.7369,88.7074,271.4063,3.8649e-05,3.27e-06,0.0,0 STARLINK-4676,1 53598U 22104L   24172.42991340  .00000327  00000-0  38649-4 0  9993,2 53598  53.2154 179.7369 0001265  88.7074 271.4063 15.08840806100927,6917.878,95.438,540.618,538.868,0.0
53598.0,STARLINK-4676,PAYLOAD,2024-06-21 03:48:20,15.08827831,0.0001629,53.2161,176.4599,106.0526,254.0646,-0.00012939,-2.346e-05,0.0,0 STARLINK-4676,1 53598U 22104L   24173.15857103 -.00002346  00000-0 -12939-3 0  9990,2 53598  53.2161 176.4599 0001629 106.0526 254.0646 15.08827831100347,6917.918,95.438,540.91,538.656,0.0
53598.0,STARLINK-4676,PAYLOAD,2024-06-22 05:14:31,15.08827652,0.0001457,53.2154,171.7008,103.7187,256.3967,-5.5898e-05,-1.177e-05,0.0,0 STARLINK-4676,1 53598U 22104L   24174.21841814 -.00001177  00000-0 -55898-4 0  9993,2 53598  53.2154 171.7008 0001457 103.7187 256.3967 15.08827652100508,6917.918,95.438,540.791,538.775,0.0
53598.0,STARLINK-4676,PAYLOAD,2024-06-23 05:05:18,15.08827847,0.0001367,53.2157,167.2488,97.8762,262.2386,0.00012916,1.768e-05,0.0,0 STARLINK-4676,1 53598U 22104L   24175.21202325  .00001768  00000-0  12916-3 0  9999,2 53598  53.2157 167.2488 0001367  97.8762 262.2386 15.08827847101345,6917.918,95.438,540.728,538.837,0.0
